STARLINK-30535          
1 58001U 23153L   26068.05566297 -.00000365  00000+0 -39061-5 0  9999
2 58001  42.9996  70.2617 0001859 273.2776  86.7863 15.26739724134805
STARLINK-36554          
1 67502U 26012K   26067.71268370  .00032833  00000+0  11969-2 0  9992
2 67502  42.9934 319.8184 0000695 339.2059  20.8765 15.27591469  7619
